ALOUETTE 1 (S-27)       
1 00424U 62049A   02066.92487919  .00000378  00000-0  43030-3 0  7230
2 00424  80.4631  21.2224 0024239  57.6787 302.6697 13.68385860968078
IUE                     
1 10637U 78012A   02068.95828135 -.00000249  00000-0  10000-3 0  8249
2 10637  38.9083  51.6352 1537749 104.7099 272.8438  1.00059765 40874
IRAS                    
1 13777U 83004A   02069.52712517  .00000094  00000-0  94261-4 0  3114
2 13777  99.0340 249.4329 0011300  76.1966 284.0447 13.99779944646013
EXOS D (AKEBONO)        
1 19822U 89016A   02066.87521174  .00036317  00000-0  15480-2 0  1975
2 19822  75.0956 256.1183 3216821 203.4086 138.0499  8.94664954339967
INTERCOSMOS 24          
1 20261U 89080A   02069.18470619  .00004487  00000-0  13962-2 0   749
2 20261  82.5961  11.8368 1220851 315.4709  35.4299 12.51515213566969
COBE                    
1 20322U 89089A   02069.06336780  .00000514  00000-0  35251-3 0  9127
2 20322  98.9094  74.8529 0008080 328.3908  31.6773 14.04058174630385
HST                     
1 20580U 90037B   02069.20505354  .00019199  00000-0  16806-2 0  8996
2 20580  28.4587 117.8264 0004753 210.0180 212.6919 14.95414297450848
ROSAT                   
1 20638U 90049A   02068.38718374  .00015296  00000-0  59687-3 0  5322
2 20638  53.0056 175.1079 0008445  48.8450 311.3303 15.26097531648674
CRRES                   
1 20712U 90065A   02066.26363711  .00001138  00000-0  11677-2 0  4335
2 20712  17.7918 111.1376 7154454 162.7345 247.5580  2.40391513 92713
SARA                    
1 21578U 91050E   02066.60105009  .00005873  00000-0  16469-2 0  7330
2 21578  98.1254 100.2746 0005344  70.7686 289.4083 14.46350709559286
SOLAR A (YOHKOH)        
1 21694U 91062A   02069.41853454  .00025585  00000-0  13534-2 0  9219
2 21694  31.3419  81.8400 0099524  83.2792 277.8879 15.10066982571454
UARS                    
1 21701U 91063B   02069.40522298  .00003329  00000-0  27357-3 0  5607
2 21701  56.9827 347.8748 0004691  84.6882 275.4689 15.01626506573847
SAMPEX                  
1 22012U 92038A   02069.46752157  .00013192  00000-0  69640-3 0  6972
2 22012  81.6449  50.8635 0087550 115.9901 245.0315 15.12071492528242
ORBVIEW 1 (MICROLAB)    
1 23547U 95017C   02066.94195221  .00006265  00000-0  15648-2 0   200
2 23547  69.9750 346.7029 0009099 115.2706 244.9367 14.51928032366037
XTE                     
1 23757U 95074A   02068.27174626  .00013790  00000-0  74128-3 0  9726
2 23757  22.9817 131.7609 0010048  42.4183 317.7053 15.12741239340140
SAX                     
1 23857U 96027A   02065.61849792  .00056197  00000-0  19582-2 0   680
2 23857   3.9537 115.7023 0007078 247.8140 112.1148 15.27573120321097
FAST                    
1 24285U 96049A   02067.58573509  .00013627  00000-0  12576-2 0  8492
2 24285  82.9773 301.9741 2081689 135.4817 243.3760 11.08642159220777
SAC-B/HETE/PEGASUS      
1 24645U 96061A   02066.55063953  .00320614  00000-0  11548-2 0  1239
2 24645  37.9581 143.6926 0002361 264.4994  95.5523 15.86922990297982
SNOE                    
1 25233U 98012A   02066.64101925  .00038437  00000-0  12450-2 0  9233
2 25233  97.6384 347.8892 0019934 339.5202  20.5239 15.31724735222134
TRACE                   
1 25280U 98020A   02066.58446052  .00008807  00000-0  85685-3 0  7428
2 25280  97.8212 250.3750 0025165 145.2545 215.0323 14.92543544213222
SAFIR 2                 
1 25399U 98043F   02066.77601939 -.00000044  00000-0  00000-0 0  6174
2 25399  98.6587 145.4234 0002209  43.3048 316.8306 14.23414285190068
SWAS                    
1 25560U 98071A   02066.93223781  .00007556  00000-0  95307-3 0  7079
2 25560  69.9029 128.9948 0012706 237.0958 122.8964 14.82251506175500
ASTRID 2                
1 25568U 98072B   02066.97388572  .00000509  00000-0  54743-3 0  4619
2 25568  82.9503 136.2190 0023222 230.5560 129.3540 13.71627265162192
ORSTED                  
1 25635U 99008B   02068.71796541  .00002234  00000-0  58061-3 0  5566
2 25635  96.4746 132.7910 0147569 346.6812  13.0500 14.44006226160010
SUNSAT                  
1 25636U 99008C   02068.84758087  .00001136  00000-0  30740-3 0  5793
2 25636  96.4731 132.2022 0150279 349.7282  10.0843 14.42525873159962
WIRE                    
1 25646U 99011A   02069.53869754  .00020176  00000-0  96348-3 0  6892
2 25646  97.5082 254.1137 0023420 358.7177   1.3991 15.18831391165867
ABRIXAS                 
1 25721U 99022A   02066.52702288  .00012638  00000-0  81480-3 0  6370
2 25721  48.4408  36.8112 0028281 328.5115  31.4118 15.08213285156773
TERRIERS                
1 25735U 99026A   02066.69861372  .00009276  00000-0  49505-3 0  6081
2 25735  97.5744 307.6033 0009304  25.8489 334.3199 15.15329337154599
FUSE                    
1 25791U 99035A   02069.24793971  .00001911  00000-0  53253-3 0  5099
2 25791  24.9880  43.5225 0010388 102.6935 257.4711 14.40737632142757
CXO                     
1 25867U 99040B   02066.00000000  .00000000  00000-0  00000-0 0  3549
2 25867  43.0290 131.1125 6862823 312.8506   1.0522  0.37801815   982
CLEMENTINE              
1 25978U 99064B   02066.88183989  .00008069  00000-0  10927-2 0  6099
2 25978  98.1697  19.2779 0013520  93.3247 266.9510 14.79168235121646
XMM                     
1 25989U 99066A   02066.33333333  .00000000  00000-0  00000-0 0  4019
2 25989  34.6044 173.3140 8016631 107.0304 350.4759  0.50102796  1155
TERRA                   
1 25994U 99068A   02069.24866592  .00001915  00000-0  43449-3 0  6383
2 25994  98.1939 145.5499 0000736  16.7538 343.3697 14.57149257118373
ACRIMSAT                
1 26033U 99070B   02066.86360152  .00002690  00000-0  58189-3 0  5272
2 26033  98.2147 330.4428 0028730 227.3224 132.5554 14.58828220117625
IMAGE                   
1 26113U 00017A   02065.35049039  .00000195  00000-0  10000-3 0  2483
2 26113  89.5591 194.9775 7385058 239.9324  28.7551  1.68631479 11973
DELTA 2 R/B(2)          
1 26115U 00017C   02065.45419385  .00000200  00000-0  10000-3 0  2769
2 26115  89.6250 194.9334 7404399 240.6261  27.8266  1.68190700 11956
CLUSTER II/FM7          
1 26410U 00041A   02067.91666667  .00000000  00000-0  00000-0 0  2522
2 26410  89.1759 162.6907 6299275   8.4860 356.5916  0.42065747   270
CLUSTER II/FM6          
1 26411U 00041B   02067.91666667  .00000000  00000-0  00000-0 0  2646
2 26411  89.1982 162.7310 6297855   8.5810 356.6426  0.42065675   330
CLUSTER II/FM5          
1 26463U 00045A   02067.91666667  .00000000  00000-0  00000-0 0  2535
2 26463  89.2143 162.7289 6295946   8.4242 356.4669  0.42063882   828
CLUSTER II/FM8          
1 26464U 00045B   02067.91666667  .00000000  00000-0  00000-0 0  2390
2 26464  89.2036 162.7398 6296552   8.5501 356.5827  0.42065121   201
MEGSAT-1                
1 26546U 00057B   02066.94113134  .00007687  00000-0  10161-2 0  4461
2 26546  64.5589  14.6846 0050038 284.8678  74.6879 14.79716634 77935
HETE-2                  
1 26561U 00061A   02064.72788067  .00009906  00000-0  92675-3 0  1992
2 26561   1.9469  40.5773 0027405   3.3588 356.6528 14.89510930 76392
MUNIN                   
1 26621U 00075C   02066.61346050 -.00000080  00000-0 -62324-4 0  1328
2 26621  95.4190 274.6175 0720084  33.2424 331.1849 13.03362251 61336
ODIN                    
1 26702U 01007A   02066.95081180  .00008824  00000-0  95154-3 0  3961
2 26702  97.8201  75.7403 0003987 324.5446  35.5504 14.88631850 56521
HESSI                   
1 27370U 02004A   02066.65952124  .00013678  00000-0  13316-2 0   344
2 27370  38.0389 164.6131 0017449 142.0443 218.1548 14.91930803  4457
